{"type": "FeatureCollection", "features": [ {"type": "Feature", "properties": {"norad_id": 33799, "name": "COSMOS 2251 DEB", "group": "cosmos-2251-debris", "lat": 28.457790141009237, "lon": -104.60901311596083, "alt_km": 612.7040978889363, "timestamp": "2025-12-11T10:53:16.282327+00:00", "meta": {"OBJECT_NAME": "COSMOS 2251 DEB", "OBJECT_ID": "1993-036AQ", "EPOCH": "2025-12-11T05:26:26.479104", "MEAN_MOTION": 14.79545619, "ECCENTRICITY": 0.0023529, "INCLINATION": 74.0316, "RA_OF_ASC_NODE": 84.7659, "ARG_OF_PERICENTER": 156.0381, "MEAN_ANOMALY": 225.7798, "EPHEMERIS_TYPE": 0, "CLASSIFICATION_TYPE": "U", "NORAD_CAT_ID": 33799, "ELEMENT_SET_NO": 999, "REV_AT_EPOCH": 88789, "BSTAR": 0.0018588, "MEAN_MOTION_DOT": 0.00013972, "MEAN_MOTION_DDOT": 0}, "tle": {"line1": "1 33799U 93036AQ  25345.22669536  .00013972  00000+0  18588-2 0  9993", "line2": "2 33799  74.0316  84.7659 0023529 156.0381 225.7798 14.79545619887899"}}, "geometry": {"type": "Point", "coordinates": [-104.60901311596083, 28.457790141009237]}}, {"type": "Feature", "properties": {"norad_id": 33805, "name": "COSMOS 2251 DEB", "group": "cosmos-2251-debris", "lat": 23.54323990050334, "lon": -39.054670493966555, "alt_km": 719.4319641643096, "timestamp": "2025-12-11T10:53:16.282338+00:00", "meta": {"OBJECT_NAME": "COSMOS 2251 DEB", "OBJECT_ID": "1993-036AW", "EPOCH": "2025-12-10T21:35:57.102144", "MEAN_MOTION": 14.57848804, "ECCENTRICITY": 0.0060276, "INCLINATION": 74.0305, "RA_OF_ASC_NODE": 314.8308, "ARG_OF_PERICENTER": 144.3337, "MEAN_ANOMALY": 216.1879, "EPHEMERIS_TYPE": 0, "CLASSIFICATION_TYPE": "U", "NORAD_CAT_ID": 33805, "ELEMENT_SET_NO": 999, "REV_AT_EPOCH": 89200, "BSTAR": 0.00036624, "MEAN_MOTION_DOT": 1.689e-05, "MEAN_MOTION_DDOT": 0}, "tle": {"line1": "1 33805U 93036AW  25344.89996646  .00001689  00000+0  36624-3 0  9992", "line2": "2 33805  74.0305 314.8308 0060276 144.3337 216.1879 14.57848804892005"}}, "geometry": {"type": "Point", "coordinates": [-39.054670493966555, 23.54323990050334]}}, {"type": "Feature", "properties": {"norad_id": 33811, "name": "COSMOS 2251 DEB", "group": "cosmos-2251-debris", "lat": 32.59234304553009, "lon": -43.99135713033951, "alt_km": 527.5891349657395, "timestamp": "2025-12-11T10:53:16.282349+00:00", "meta": {"OBJECT_NAME": "COSMOS 2251 DEB", "OBJECT_ID": "1993-036BC", "EPOCH": "2025-12-11T04:24:20.830752", "MEAN_MOTION": 15.05186133, "ECCENTRICITY": 0.0030669, "INCLINATION": 73.8381, "RA_OF_ASC_NODE": 305.8833, "ARG_OF_PERICENTER": 26.624, "MEAN_ANOMALY": 344.636, "EPHEMERIS_TYPE": 0, "CLASSIFICATION_TYPE": "U", "NORAD_CAT_ID": 33811, "ELEMENT_SET_NO": 999, "REV_AT_EPOCH": 89995, "BSTAR": 0.0017962, "MEAN_MOTION_DOT": 0.00025944, "MEAN_MOTION_DDOT": 0}, "tle": {"line1": "1 33811U 93036BC  25345.18357443  .00025944  00000+0  17962-2 0  9991", "line2": "2 33811  73.8381 305.8833 0030669  26.6240 344.6360 15.05186133899951"}}, "geometry": {"type": "Point", "coordinates": [-43.99135713033951, 32.59234304553009]}}, {"type": "Feature", "properties": {"norad_id": 33815, "name": "COSMOS 2251 DEB", "group": "cosmos-2251-debris", "lat": 41.727506597347784, "lon": -165.8389619092946, "alt_km": 512.0035902201025, "timestamp": "2025-12-11T10:53:16.282360+00:00", "meta": {"OBJECT_NAME": "COSMOS 2251 DEB", "OBJECT_ID": "1993-036BG", "EPOCH": "2025-12-10T00:34:36.803712", "MEAN_MOTION": 15.1696459, "ECCENTRICITY": 0.00027751, "INCLINATION": 73.9523, "RA_OF_ASC_NODE": 182.2836, "ARG_OF_PERICENTER": 231.9732, "MEAN_ANOMALY": 286.9539, "EPHEMERIS_TYPE": 0, "CLASSIFICATION_TYPE": "U", "NORAD_CAT_ID": 33815, "ELEMENT_SET_NO": 999, "REV_AT_EPOCH": 88329, "BSTAR": 0.0073023687, "MEAN_MOTION_DOT": 0.00147157, "MEAN_MOTION_DDOT": 0}, "tle": {"line1": "1 33815U 93036BG  25344.02403708  .00147157  00000+0  73024-2 0  9995", "line2": "2 33815  73.9523 182.2836 0002775 231.9732 286.9539 15.16964590883297"}}, "geometry": {"type": "Point", "coordinates": [-165.8389619092946, 41.727506597347784]}}, {"type": "Feature", "properties": {"norad_id": 33816, "name": "COSMOS 2251 DEB", "group": "cosmos-2251-debris", "lat": 2.3647622053000212, "lon": -73.10771081825472, "alt_km": 849.492892997142, "timestamp": "2025-12-11T10:53:16.282371+00:00", "meta": {"OBJECT_NAME": "COSMOS 2251 DEB", "OBJECT_ID": "1993-036BH", "EPOCH": "2025-12-10T18:25:07.599648", "MEAN_MOTION": 13.81779424, "ECCENTRICITY": 0.02647961, "INCLINATION": 73.8947, "RA_OF_ASC_NODE": 108.7386, "ARG_OF_PERICENTER": 122.0549, "MEAN_ANOMALY": 240.6589, "EPHEMERIS_TYPE": 0, "CLASSIFICATION_TYPE": "U", "NORAD_CAT_ID": 33816, "ELEMENT_SET_NO": 999, "REV_AT_EPOCH": 84646, "BSTAR": 0.00077978589, "MEAN_MOTION_DOT": 1.068e-05, "MEAN_MOTION_DDOT": 0}, "tle": {"line1": "1 33816U 93036BH  25344.76744907  .00001068  00000+0  77979-3 0  9990", "line2": "2 33816  73.8947 108.7386 0264796 122.0549 240.6589 13.81779424846469"}}, "geometry": {"type": "Point", "coordinates": [-73.10771081825472, 2.3647622053000212]}}, {"type": "Feature", "properties": {"norad_id": 33818, "name": "COSMOS 2251 DEB", "group": "cosmos-2251-debris", "lat": -40.814450637593815, "lon": 154.62482358902128, "alt_km": 553.1419106659123, "timestamp": "2025-12-11T10:53:16.282383+00:00", "meta": {"OBJECT_NAME": "COSMOS 2251 DEB", "OBJECT_ID": "1993-036BK", "EPOCH": "2025-12-10T23:04:43.713984", "MEAN_MOTION": 15.12257187, "ECCENTRICITY": 0.0027544, "INCLINATION": 74.0759, "RA_OF_ASC_NODE": 169.9158, "ARG_OF_PERICENTER": 159.4021, "MEAN_ANOMALY": 0.1181, "EPHEMERIS_TYPE": 0, "CLASSIFICATION_TYPE": "U", "NORAD_CAT_ID": 33818, "ELEMENT_SET_NO": 999, "REV_AT_EPOCH": 89835, "BSTAR": 0.0031578, "MEAN_MOTION_DOT": 0.00055504, "MEAN_MOTION_DDOT": 0}, "tle": {"line1": "1 33818U 93036BK  25344.96161706  .00055504  00000+0  31578-2 0  9992", "line2": "2 33818  74.0759 169.9158 0027544 159.4021   0.1181 15.12257187898353"}}, "geometry": {"type": "Point", "coordinates": [154.62482358902128, -40.814450637593815]}}, {"type": "Feature", "properties": {"norad_id": 33819, "name": "COSMOS 2251 DEB", "group": "cosmos-2251-debris", "lat": 73.95906036085628, "lon": -48.29919886914208, "alt_km": 716.4718989526791, "timestamp": "2025-12-11T10:53:16.282394+00:00", "meta": {"OBJECT_NAME": "COSMOS 2251 DEB", "OBJECT_ID": "1993-036BL", "EPOCH": "2025-12-11T00:58:03.698112", "MEAN_MOTION": 14.322125, "ECCENTRICITY": 0.0089022, "INCLINATION": 74.1789, "RA_OF_ASC_NODE": 212.9195, "ARG_OF_PERICENTER": 74.7581, "MEAN_ANOMALY": 47.2281, "EPHEMERIS_TYPE": 0, "CLASSIFICATION_TYPE": "U", "NORAD_CAT_ID": 33819, "ELEMENT_SET_NO": 999, "REV_AT_EPOCH": 87471, "BSTAR": 0.00088699, "MEAN_MOTION_DOT": 2.474e-05, "MEAN_MOTION_DDOT": 0}, "tle": {"line1": "1 33819U 93036BL  25345.04032058  .00002474  00000+0  88699-3 0  9995", "line2": "2 33819  74.1789 212.9195 0089022  74.7581  47.2281 14.32212500874715"}}, "geometry": {"type": "Point", "coordinates": [-48.29919886914208, 73.95906036085628]}}, {"type": "Feature", "properties": {"norad_id": 33821, "name": "COSMOS 2251 DEB", "group": "cosmos-2251-debris", "lat": 55.4214026895259, "lon": 170.10392734509102, "alt_km": 502.7389629364952, "timestamp": "2025-12-11T10:53:16.282405+00:00", "meta": {"OBJECT_NAME": "COSMOS 2251 DEB", "OBJECT_ID": "1993-036BN", "EPOCH": "2025-12-11T04:19:51.883968", "MEAN_MOTION": 15.2515417, "ECCENTRICITY": 0.0052285, "INCLINATION": 74.0302, "RA_OF_ASC_NODE": 146.133, "ARG_OF_PERICENTER": 180.1617, "MEAN_ANOMALY": 179.9576, "EPHEMERIS_TYPE": 0, "CLASSIFICATION_TYPE": "U", "NORAD_CAT_ID": 33821, "ELEMENT_SET_NO": 999, "REV_AT_EPOCH": 74977, "BSTAR": 0.0018317, "MEAN_MOTION_DOT": 0.00048029, "MEAN_MOTION_DDOT": 0}, "tle": {"line1": "1 33821U 93036BN  25345.18046162  .00048029  00000+0  18317-2 0  9999", "line2": "2 33821  74.0302 146.1330 0052285 180.1617 179.9576 15.25154170749778"}}, "geometry": {"type": "Point", "coordinates": [170.10392734509102, 55.4214026895259]}}, {"type": "Feature", "properties": {"norad_id": 33822, "name": "COSMOS 2251 DEB", "group": "cosmos-2251-debris", "lat": 8.530092733854548, "lon": -161.5916567550469, "alt_km": 915.0659621673021, "timestamp": "2025-12-11T10:53:16.282417+00:00", "meta": {"OBJECT_NAME": "COSMOS 2251 DEB", "OBJECT_ID": "1993-036BP", "EPOCH": "2025-12-10T08:30:14.657184", "MEAN_MOTION": 14.13051479, "ECCENTRICITY": 0.01535173, "INCLINATION": 74.0694, "RA_OF_ASC_NODE": 197.893, "ARG_OF_PERICENTER": 244.7874, "MEAN_ANOMALY": 292.7166, "EPHEMERIS_TYPE": 0, "CLASSIFICATION_TYPE": "U", "NORAD_CAT_ID": 33822, "ELEMENT_SET_NO": 999, "REV_AT_EPOCH": 86020, "BSTAR": 0.0017246125, "MEAN_MOTION_DOT": 3.577e-05, "MEAN_MOTION_DDOT": 0}, "tle": {"line1": "1 33822U 93036BP  25344.35433631  .00003577  00000+0  17246-2 0  9998", "line2": "2 33822  74.0694 197.8930 0153517 244.7874 292.7166 14.13051479860209"}}, "geometry": {"type": "Point", "coordinates": [-161.5916567550469, 8.530092733854548]}}, {"type": "Feature", "properties": {"norad_id": 33823, "name": "COSMOS 2251 DEB", "group": "cosmos-2251-debris", "lat": -67.40389775621394, "lon": 15.857707795688484, "alt_km": 763.6056740955737, "timestamp": "2025-12-11T10:53:16.282445+00:00", "meta": {"OBJECT_NAME": "COSMOS 2251 DEB", "OBJECT_ID": "1993-036BQ", "EPOCH": "2025-12-11T05:03:22.059072", "MEAN_MOTION": 13.98943578, "ECCENTRICITY": 0.0209333, "INCLINATION": 73.8096, "RA_OF_ASC_NODE": 152.0103, "ARG_OF_PERICENTER": 277.4208, "MEAN_ANOMALY": 194.2263, "EPHEMERIS_TYPE": 0, "CLASSIFICATION_TYPE": "U", "NORAD_CAT_ID": 33823, "ELEMENT_SET_NO": 999, "REV_AT_EPOCH": 85588, "BSTAR": 0.0010375, "MEAN_MOTION_DOT": 1.78e-05, "MEAN_MOTION_DDOT": 0}, "tle": {"line1": "1 33823U 93036BQ  25345.21067198  .00001780  00000+0  10375-2 0  9996", "line2": "2 33823  73.8096 152.0103 0209333 277.4208 194.2263 13.98943578855884"}}, "geometry": {"type": "Point", "coordinates": [15.857707795688484, -67.40389775621394]}}]}